{
  "type": "FeatureCollection",
  "features": [
    {
      "type": "Feature",
      "properties": {
        "norad_id": 39773,
        "name": "EUTELSAT 3B",
        "group": "eutelsat",
        "lat": -0.04925611939624836,
        "lon": -163.2258727763255,
        "alt_km": 35769.04042341387,
        "timestamp": "2025-12-09T07:41:32.874915+00:00",
        "meta_object_name": "EUTELSAT 3B",
        "meta_object_id": "2014-030A",
        "meta_epoch": "2025-12-08T22:10:44.711904",
        "meta_mean_motion": 1.0027126,
        "meta_eccentricity": 0.00047749,
        "meta_inclination": 0.0633,
        "meta_ra_of_asc_node": 340.6749,
        "meta_arg_of_pericenter": 247.5106,
        "meta_mean_anomaly": 185.5304,
        "meta_ephemeris_type": 0,
        "meta_classification_type": "U",
        "meta_norad_cat_id": 39773,
        "meta_element_set_no": 999,
        "meta_rev_at_epoch": 4215,
        "meta_bstar": 0,
        "meta_mean_motion_dot": 2.2e-07,
        "meta_mean_motion_ddot": 0,
        "tle_line1": "1 39773U 14030A   25342.92412861  .00000022  00000+0  00000+0 0  9998",
        "tle_line2": "2 39773   0.0633 340.6749 0004774 247.5106 185.5304  1.00271260 42150"
      },
      "geometry": {
        "type": "Point",
        "coordinates": [
          -163.2258727763255,
          -0.04925611939624836
        ]
      }
    },
    {
      "type": "Feature",
      "properties": {
        "norad_id": 40425,
        "name": "EUTELSAT 115 WEST B",
        "group": "eutelsat",
        "lat": -0.011475943601265666,
        "lon": 78.78716356403055,
        "alt_km": 35787.26454482547,
        "timestamp": "2025-12-09T07:41:32.874933+00:00",
        "meta_object_name": "EUTELSAT 115 WEST B",
        "meta_object_id": "2015-010B",
        "meta_epoch": "2025-12-08T21:37:02.939808",
        "meta_mean_motion": 1.0026462,
        "meta_eccentricity": 3.497e-05,
        "meta_inclination": 0.0085,
        "meta_ra_of_asc_node": 149.7975,
        "meta_arg_of_pericenter": 345.4858,
        "meta_mean_anomaly": 151.983,
        "meta_ephemeris_type": 0,
        "meta_classification_type": "U",
        "meta_norad_cat_id": 40425,
        "meta_element_set_no": 999,
        "meta_rev_at_epoch": 3948,
        "meta_bstar": 0,
        "meta_mean_motion_dot": -2.2e-07,
        "meta_mean_motion_ddot": 0,
        "tle_line1": "1 40425U 15010B   25342.90072847 -.00000022  00000+0  00000+0 0  9998",
        "tle_line2": "2 40425   0.0085 149.7975 0000349 345.4858 151.9830  1.00264620 39487"
      },
      "geometry": {
        "type": "Point",
        "coordinates": [
          78.78716356403055,
          -0.011475943601265666
        ]
      }
    },
    {
      "type": "Feature",
      "properties": {
        "norad_id": 40875,
        "name": "EUTELSAT 8 WEST B",
        "group": "eutelsat",
        "lat": -0.01401302496482788,
        "lon": -174.33470591118444,
        "alt_km": 35781.20114214667,
        "timestamp": "2025-12-09T07:41:32.874946+00:00",
        "meta_object_name": "EUTELSAT 8 WEST B",
        "meta_object_id": "2015-039B",
        "meta_epoch": "2025-12-08T22:07:37.509888",
        "meta_mean_motion": 1.00271462,
        "meta_eccentricity": 0.00041506,
        "meta_inclination": 0.0645,
        "meta_ra_of_asc_node": 359.6326,
        "meta_arg_of_pericenter": 259.6148,
        "meta_mean_anomaly": 142.5943,
        "meta_ephemeris_type": 0,
        "meta_classification_type": "U",
        "meta_norad_cat_id": 40875,
        "meta_element_set_no": 999,
        "meta_rev_at_epoch": 3774,
        "meta_bstar": 0,
        "meta_mean_motion_dot": -6.3e-07,
        "meta_mean_motion_ddot": 0,
        "tle_line1": "1 40875U 15039B   25342.92196192 -.00000063  00000+0  00000+0 0  9995",
        "tle_line2": "2 40875   0.0645 359.6326 0004150 259.6148 142.5943  1.00271462 37742"
      },
      "geometry": {
        "type": "Point",
        "coordinates": [
          -174.33470591118444,
          -0.01401302496482788
        ]
      }
    },
    {
      "type": "Feature",
      "properties": {
        "norad_id": 41310,
        "name": "EUTELSAT 9B",
        "group": "eutelsat",
        "lat": 0.006140301401681419,
        "lon": -157.34152154173157,
        "alt_km": 35776.27945877386,
        "timestamp": "2025-12-09T07:41:32.874958+00:00",
        "meta_object_name": "EUTELSAT 9B",
        "meta_object_id": "2016-005A",
        "meta_epoch": "2025-12-08T21:44:38.781888",
        "meta_mean_motion": 1.00271973,
        "meta_eccentricity": 0.00048973,
        "meta_inclination": 0.0356,
        "meta_ra_of_asc_node": 52.0517,
        "meta_arg_of_pericenter": 212.7263,
        "meta_mean_anomaly": 148.2994,
        "meta_ephemeris_type": 0,
        "meta_classification_type": "U",
        "meta_norad_cat_id": 41310,
        "meta_element_set_no": 999,
        "meta_rev_at_epoch": 3620,
        "meta_bstar": 0,
        "meta_mean_motion_dot": 6.4e-07,
        "meta_mean_motion_ddot": 0,
        "tle_line1": "1 41310U 16005A   25342.90600442  .00000064  00000+0  00000+0 0  9990",
        "tle_line2": "2 41310   0.0356  52.0517 0004897 212.7263 148.2994  1.00271973 36204"
      },
      "geometry": {
        "type": "Point",
        "coordinates": [
          -157.34152154173157,
          0.006140301401681419
        ]
      }
    },
    {
      "type": "Feature",
      "properties": {
        "norad_id": 41382,
        "name": "EUTELSAT 65 WEST A",
        "group": "eutelsat",
        "lat": 0.0525020570095042,
        "lon": 128.46266961372837,
        "alt_km": 35793.85048860895,
        "timestamp": "2025-12-09T07:41:32.874970+00:00",
        "meta_object_name": "EUTELSAT 65 WEST A",
        "meta_object_id": "2016-014A",
        "meta_epoch": "2025-12-08T12:41:22.901856",
        "meta_mean_motion": 1.00271818,
        "meta_eccentricity": 0.00026162,
        "meta_inclination": 0.0497,
        "meta_ra_of_asc_node": 1.9264,
        "meta_arg_of_pericenter": 260.5786,
        "meta_mean_anomaly": 300.161,
        "meta_ephemeris_type": 0,
        "meta_classification_type": "U",
        "meta_norad_cat_id": 41382,
        "meta_element_set_no": 999,
        "meta_rev_at_epoch": 3562,
        "meta_bstar": 0,
        "meta_mean_motion_dot": -2.74e-06,
        "meta_mean_motion_ddot": 0,
        "tle_line1": "1 41382U 16014A   25342.52873729 -.00000274  00000+0  00000+0 0  9991",
        "tle_line2": "2 41382   0.0497   1.9264 0002616 260.5786 300.1610  1.00271818 35626"
      },
      "geometry": {
        "type": "Point",
        "coordinates": [
          128.46266961372837,
          0.0525020570095042
        ]
      }
    },
    {
      "type": "Feature",
      "properties": {
        "norad_id": 41589,
        "name": "EUTELSAT 117 WEST B",
        "group": "eutelsat",
        "lat": -0.014884237132644721,
        "lon": 76.69479203022811,
        "alt_km": 35785.04165695144,
        "timestamp": "2025-12-09T07:41:32.874982+00:00",
        "meta_object_name": "EUTELSAT 117 WEST B",
        "meta_object_id": "2016-038B",
        "meta_epoch": "2025-12-08T21:36:18.011808",
        "meta_mean_motion": 1.00269979,
        "meta_eccentricity": 3.959e-05,
        "meta_inclination": 0.0047,
        "meta_ra_of_asc_node": 146.6859,
        "meta_arg_of_pericenter": 313.5704,
        "meta_mean_anomaly": 184.7203,
        "meta_ephemeris_type": 0,
        "meta_classification_type": "U",
        "meta_norad_cat_id": 41589,
        "meta_element_set_no": 999,
        "meta_rev_at_epoch": 3475,
        "meta_bstar": 0,
        "meta_mean_motion_dot": -9e-08,
        "meta_mean_motion_ddot": 0,
        "tle_line1": "1 41589U 16038B   25342.90020847 -.00000009  00000+0  00000+0 0  9999",
        "tle_line2": "2 41589   0.0047 146.6859 0000395 313.5704 184.7203  1.00269979 34756"
      },
      "geometry": {
        "type": "Point",
        "coordinates": [
          76.69479203022811,
          -0.014884237132644721
        ]
      }
    },
    {
      "type": "Feature",
      "properties": {
        "norad_id": 42741,
        "name": "EUTELSAT 172B",
        "group": "eutelsat",
        "lat": 0.0002257748752176028,
        "lon": 5.705038256389677,
        "alt_km": 35786.16870631746,
        "timestamp": "2025-12-09T07:41:32.874994+00:00",
        "meta_object_name": "EUTELSAT 172B",
        "meta_object_id": "2017-029B",
        "meta_epoch": "2025-12-08T20:03:38.651328",
        "meta_mean_motion": 1.00270561,
        "meta_eccentricity": 1.62e-05,
        "meta_inclination": 0.0129,
        "meta_ra_of_asc_node": 88.9406,
        "meta_arg_of_pericenter": 207.2634,
        "meta_mean_anomaly": 254.5512,
        "meta_ephemeris_type": 0,
        "meta_classification_type": "U",
        "meta_norad_cat_id": 42741,
        "meta_element_set_no": 999,
        "meta_rev_at_epoch": 3182,
        "meta_bstar": 0,
        "meta_mean_motion_dot": -4e-08,
        "meta_mean_motion_ddot": 0,
        "tle_line1": "1 42741U 17029B   25342.83586402 -.00000004  00000+0  00000+0 0  9992",
        "tle_line2": "2 42741   0.0129  88.9406 0000162 207.2634 254.5512  1.00270561 31820"
      },
      "geometry": {
        "type": "Point",
        "coordinates": [
          5.705038256389677,
          0.0002257748752176028
        ]
      }
    }
  ]
}